IRIDIUM 119             
1 42959U 17061E   24247.55850112 -.00000221  00000+0 -85956-4 0  9993
2 42959  86.3949 297.5615 0001882  86.6883 273.4528 14.34214480361410
IRIDIUM 107             
1 42960U 17061F   24247.57752682  .00000926  00000+0  32338-3 0  9995
2 42960  86.3950 297.5712 0001956  90.7066 269.4354 14.34222644361427
IRIDIUM 132             
1 42961U 17061G   24247.51410275  .00000208  00000+0  67236-4 0  9998
2 42961  86.3948 297.5816 0001874  97.1238 263.0171 14.34217081361416
IRIDIUM 136             
1 42962U 17061H   24247.61558060  .00001042  00000+0  36513-3 0  9995
2 42962  86.3949 297.5429 0002195  89.2669 270.8779 14.34214132361442
IRIDIUM 139             
1 42963U 17061J   24247.55215859  .00000199  00000+0  64093-4 0  9992
2 42963  86.3950 297.6208 0001800  90.8592 269.2810 14.34217206361449
IRIDIUM 125             
1 42964U 17061K   24247.60923925  .00000556  00000+0  19138-3 0  9995
2 42964  86.3952 297.6465 0002003  77.5494 282.5926 14.34214907361469
IRIDIUM 135             
1 43070U 17083A   24247.51360100 -.00000013  00000+0 -11695-4 0  9999
2 43070  86.3945 234.3154 0002326  95.5451 264.6010 14.34217461350746
IRIDIUM 138             
1 43071U 17083B   24247.46920292 -.00000053  00000+0 -26168-4 0  9993
2 43071  86.3934 234.0415 0002350  79.1512 280.9948 14.34217237350725
